NORAD_CAT_ID,OBJECT_NAME,OBJECT_TYPE,EPOCH,MEAN_MOTION,ECCENTRICITY,INCLINATION,RA_OF_ASC_NODE,ARG_OF_PERICENTER,MEAN_ANOMALY,BSTAR,MEAN_MOTION_DOT,MEAN_MOTION_DDOT,TLE_LINE0,TLE_LINE1,TLE_LINE2,SEMIMAJOR_AXIS,PERIOD,APOGEE,PERIGEE,DECAYED
53781.0,STARLINK-4462,PAYLOAD,2022-10-11 14:00:01,15.73146868,0.0001643,53.2172,116.0462,139.0624,168.7453,0.00068367,0.00096215,0.0,0 STARLINK-4462,1 53781U 22111J   22284.58334491  .00096215  00000-0  68367-3 0  9992,2 53781  53.2172 116.0462 0001643 139.0624 168.7453 15.73146868  4732,6728.047,91.536,351.017,348.806,0.0
53781.0,STARLINK-4462,PAYLOAD,2022-10-11 22:00:00,15.73164755,0.0001364,53.2141,114.3973,128.1004,268.5589,0.00066839,0.00094098,0.0,0 STARLINK-4462,1 53781U 22111J   22284.91667824  .00094098  00000-0  66839-3 0  9997,2 53781  53.2141 114.3973 0001364 128.1004 268.5589 15.73164755  1301,6727.996,91.535,350.778,348.9430000000001,0.0
53781.0,STARLINK-4462,PAYLOAD,2022-10-12 14:00:01,15.732107,0.0001588,53.2157,111.0965,135.2277,79.3174,0.00027914,0.00038754,0.0,0 STARLINK-4462,1 53781U 22111J   22285.58334491  .00038754  00000-0  27914-3 0  9990,2 53781  53.2157 111.0965 0001588 135.2277  79.3174 15.73210700  1302,6727.865,91.533,350.798,348.661,0.0
53781.0,STARLINK-4462,PAYLOAD,2022-10-12 22:00:00,15.73230869,0.0001223,53.217,109.4502,132.7856,170.7192,-0.00030627,-0.00043437,0.0,0 STARLINK-4462,1 53781U 22111J   22285.91667824 -.00043437  00000-0 -30627-3 0  9997,2 53781  53.2170 109.4502 0001223 132.7856 170.7192 15.73230869  1300,6727.807,91.531,350.495,348.849,0.0
53781.0,STARLINK-4462,PAYLOAD,2022-10-13 06:00:00,15.73204989,0.0001330999999999,53.2161,107.7984,128.8646,263.5227,0.00057467,0.00080828,0.0,0 STARLINK-4462,1 53781U 22111J   22286.25001157  .00080828  00000-0  57467-3 0  9990,2 53781  53.2161 107.7984 0001331 128.8646 263.5227 15.73204989  4990,6727.880999999999,91.533,350.641,348.85,0.0
53781.0,STARLINK-4462,PAYLOAD,2022-10-13 14:00:01,15.73262413,0.000143,53.217,106.1488,130.1964,351.162,-0.00065183,-0.00091357,0.0,0 STARLINK-4462,1 53781U 22111J   22286.58334491 -.00091357  00000-0 -65183-3 0  9991,2 53781  53.2170 106.1488 0001430 130.1964 351.1620 15.73262413  1300,6727.717,91.53,350.5440000000001,348.62,0.0
53781.0,STARLINK-4462,PAYLOAD,2022-10-13 20:00:01,15.73205766,0.0001431,53.2175,104.9138,125.3049,332.8468,-1.6281e-05,-2.905e-05,0.0,0 STARLINK-4462,1 53781U 22111J   22286.83335648 -.00002905  00000-0 -16281-4 0  9991,2 53781  53.2175 104.9138 0001431 125.3049 332.8468 15.73205766  5098,6727.879,91.533,350.706,348.781,0.0
53781.0,STARLINK-4462,PAYLOAD,2022-10-13 22:00:00,15.73212888,0.0001217999999999,53.2173,104.5015,126.5859,83.7304,-9.5624e-05,-0.00014025,0.0,0 STARLINK-4462,1 53781U 22111J   22286.91667824 -.00014025  00000-0 -95624-4 0  9998,2 53781  53.2173 104.5015 0001218 126.5859  83.7304 15.73212888  1305,6727.858,91.532,350.543,348.904,0.0
53781.0,STARLINK-4462,PAYLOAD,2022-10-14 14:00:01,15.73205399,0.0001754999999999,53.2169,101.2004,121.3913,266.7982,-1.2708e-05,-2.404e-05,0.0,0 STARLINK-4462,1 53781U 22111J   22287.58334491 -.00002404  00000-0 -12708-4 0  9993,2 53781  53.2169 101.2004 0001755 121.3913 266.7982 15.73205399  1306,6727.88,91.533,350.926,348.564,0.0
53781.0,STARLINK-4462,PAYLOAD,2022-10-14 18:00:00,15.73203102,0.0001717,53.2172,100.3773,118.8003,133.8565,1.3213e-05,1.234e-05,0.0,0 STARLINK-4462,1 53781U 22111J   22287.75001157  .00001234  00000-0  13213-4 0  9992,2 53781  53.2172 100.3773 0001717 118.8003 133.8565 15.73203102  1303,6727.886,91.533,350.907,348.596,0.0
53781.0,STARLINK-4462,PAYLOAD,2022-10-15 06:00:00,15.73187487,0.000147,53.2173,97.9014,132.3405,73.7267,0.00018545,0.00025472,0.0,0 STARLINK-4462,1 53781U 22111J   22288.25001157  .00025472  00000-0  18545-3 0  9990,2 53781  53.2173  97.9014 0001470 132.3405  73.7267 15.73187487  5319,6727.931,91.534,350.785,348.807,0.0
53781.0,STARLINK-4462,PAYLOAD,2022-10-15 14:00:01,15.73208535,0.0001161,53.2149,96.2506,118.7714,176.2512,-0.00035661,-0.00050386,0.0,0 STARLINK-4462,1 53781U 22111J   22288.58334491 -.00050386  00000-0 -35661-3 0  9998,2 53781  53.2149  96.2506 0001161 118.7714 176.2512 15.73208535  1303,6727.871,91.533,350.517,348.955,0.0
53781.0,STARLINK-4462,PAYLOAD,2022-10-15 22:00:01,15.73168351,0.0001208,53.2144,94.6026,100.4182,283.628,0.00019728,0.00027119,0.0,0 STARLINK-4462,1 53781U 22111J   22288.91668981  .00027119  00000-0  19728-3 0  9991,2 53781  53.2144  94.6026 0001208 100.4182 283.6280 15.73168351  1302,6727.985,91.535,350.663,349.038,0.0
53781.0,STARLINK-4462,PAYLOAD,2022-10-16 06:00:00,15.73138674,0.0001401,53.2143,92.9512,110.318,2.5637,0.00055721,0.00078105,0.0,0 STARLINK-4462,1 53781U 22111J   22289.25001157  .00078105  00000-0  55721-3 0  9999,2 53781  53.2143  92.9512 0001401 110.3180   2.5637 15.73138674  5476,6728.07,91.537,350.87800000000016,348.992,0.0
53781.0,STARLINK-4462,PAYLOAD,2022-10-16 14:00:01,15.73178736,0.0001571,53.2147,91.3023,105.6794,96.0785,-1.9225e-05,-3.315e-05,0.0,0 STARLINK-4462,1 53781U 22111J   22289.58334491 -.00003315  00000-0 -19225-4 0  9998,2 53781  53.2147  91.3023 0001571 105.6794  96.0785 15.73178736  1309,6727.956,91.534,350.87800000000016,348.764,0.0
53781.0,STARLINK-4462,PAYLOAD,2022-10-16 22:00:00,15.73160457,0.0001441999999999,53.2151,89.6551,94.5832,196.0766,0.0008592,0.00121516,0.0,0 STARLINK-4462,1 53781U 22111J   22289.91667824  .00121516  00000-0  85920-3 0  9990,2 53781  53.2151  89.6551 0001442  94.5832 196.0766 15.73160457  1307,6728.0080000000025,91.535,350.843,348.903,0.0
53781.0,STARLINK-4462,PAYLOAD,2022-10-17 06:00:00,15.73222253,0.0001363,53.2155,88.0028,106.2811,273.3242,0.00013663,0.00018616,0.0,0 STARLINK-4462,1 53781U 22111J   22290.25001157  .00018616  00000-0  13663-3 0  9991,2 53781  53.2155  88.0028 0001363 106.2811 273.3242 15.73222253  5623,6727.831999999999,91.532,350.61400000000015,348.78,0.0
53781.0,STARLINK-4462,PAYLOAD,2022-10-17 14:00:01,15.73265092,0.0001376999999999,53.2156,86.3542,99.2542,9.3142,-0.00035711,-0.00050578,0.0,0 STARLINK-4462,1 53781U 22111J   22290.58334491 -.00050578  00000-0 -35711-3 0  9990,2 53781  53.2156  86.3542 0001377  99.2542   9.3142 15.73265092  1308,6727.71,91.529,350.501,348.648,0.0
53781.0,STARLINK-4462,PAYLOAD,2022-10-17 22:00:00,15.73223007,0.0001394,53.215,84.7064,88.5791,108.9373,-0.00019554,-0.00027999,0.0,0 STARLINK-4462,1 53781U 22111J   22290.91667824 -.00027999  00000-0 -19554-3 0  9994,2 53781  53.2150  84.7064 0001394  88.5791 108.9373 15.73223007  5732,6727.83,91.532,350.63199999999995,348.75699999999995,0.0
53781.0,STARLINK-4462,PAYLOAD,2022-10-18 14:00:01,15.73194051,0.0001189,53.2146,81.4053,95.9135,279.4721,-0.00010491,-0.00015312,0.0,0 STARLINK-4462,1 53781U 22111J   22291.58334491 -.00015312  00000-0 -10491-3 0  9996,2 53781  53.2146  81.4053 0001189  95.9135 279.4721 15.73194051  1301,6727.9119999999975,91.534,350.577,348.977,0.0
53781.0,STARLINK-4462,PAYLOAD,2022-10-18 22:00:00,15.7315614,0.0001081,53.2145,79.7568,82.6461,21.6133,0.00070651,0.00099528,0.0,0 STARLINK-4462,1 53781U 22111J   22291.91667824  .00099528  00000-0  70651-3 0  9995,2 53781  53.2145  79.7568 0001081  82.6461  21.6133 15.73156140  1308,6728.02,91.536,350.61300000000006,349.158,0.0
53781.0,STARLINK-4462,PAYLOAD,2022-10-19 06:00:00,15.73221575,0.0001125999999999,53.2147,78.1052,91.2496,101.9278,1.898e-05,2.047e-05,0.0,0 STARLINK-4462,1 53781U 22111J   22292.25001157  .00002047  00000-0  18980-4 0  9992,2 53781  53.2147  78.1052 0001126  91.2496 101.9278 15.73221575  5946,6727.834,91.532,350.456,348.941,0.0
53781.0,STARLINK-4462,PAYLOAD,2022-10-19 14:00:01,15.7322254,0.0001274999999999,53.2148,76.4567,84.1828,197.9501,7.879399999999999e-05,0.00010462,0.0,0 STARLINK-4462,1 53781U 22111J   22292.58334491  .00010462  00000-0  78794-4 0  9997,2 53781  53.2148  76.4567 0001275  84.1828 197.9501 15.73222540  1307,6727.831,91.532,350.55400000000014,348.838,0.0
53781.0,STARLINK-4462,PAYLOAD,2022-10-19 22:00:00,15.73225115,0.0001127999999999,53.2142,74.8078,71.9468,299.1751,0.00029371,0.00040845,0.0,0 STARLINK-4462,1 53781U 22111J   22292.91667824  .00040845  00000-0  29371-3 0  9997,2 53781  53.2142  74.8078 0001128  71.9468 299.1751 15.73225115  6040,6727.824000000001,91.532,350.44699999999995,348.93,0.0
53781.0,STARLINK-4462,PAYLOAD,2022-10-20 06:00:00,15.73238133,8.669999999999999e-05,53.2142,73.1561,84.8122,15.2739,-5.157e-05,-7.862e-05,0.0,0 STARLINK-4462,1 53781U 22111J   22293.25001157 -.00007862  00000-0 -51570-4 0  9997,2 53781  53.2142  73.1561 0000867  84.8122  15.2739 15.73238133  6102,6727.786,91.531,350.235,349.0680000000001,0.0
53781.0,STARLINK-4462,PAYLOAD,2022-10-20 14:00:01,15.73232781,9.48e-05,53.2145,71.5076,71.9737,117.0768,-0.00032435,-0.00045954,0.0,0 STARLINK-4462,1 53781U 22111J   22293.58334491 -.00045954  00000-0 -32435-3 0  9995,2 53781  53.2145  71.5076 0000948  71.9737 117.0768 15.73232781  1300,6727.802,91.531,350.305,349.029,0.0
53781.0,STARLINK-4462,PAYLOAD,2022-10-20 22:00:00,15.73261051,0.0001088999999999,53.2152,69.8599,62.8762,215.1061,-0.00053124,-0.00074709,0.0,0 STARLINK-4462,1 53781U 22111J   22293.91667824 -.00074709  00000-0 -53124-3 0  9999,2 53781  53.2152  69.8599 0001089  62.8762 215.1061 15.73261051  1300,6727.721,91.53,350.319,348.853,0.0
53781.0,STARLINK-4462,PAYLOAD,2022-10-21 06:00:00,15.73150685,0.0001171,53.2153,68.2071,78.0666,288.8617,0.00072622,0.00102332,0.0,0 STARLINK-4462,1 53781U 22111J   22294.25001157  .00102332  00000-0  72622-3 0  9994,2 53781  53.2153  68.2071 0001171  78.0666 288.8617 15.73150685  6256,6728.036,91.536,350.689,349.11300000000006,0.0
53781.0,STARLINK-4462,PAYLOAD,2022-10-21 14:00:01,15.73243565,0.0001199,53.2154,66.559,65.3172,30.5598,-0.00030874,-0.00043805,0.0,0 STARLINK-4462,1 53781U 22111J   22294.58334491 -.00043805  00000-0 -30874-3 0  9994,2 53781  53.2154  66.5590 0001199  65.3172  30.5598 15.73243565  1306,6727.771,91.531,350.4430000000001,348.829,0.0
